STARLINK-6142           
1 57113U 23090N   25090.40267830  .00002191  00000+0  17719-3 0  9997
2 57113  43.0025 340.0179 0001272 270.9769  89.0927 15.02543745 98771
STARLINK-6125           
1 57114U 23090P   25090.39934846  .00000365  00000+0  42077-4 0  9991
2 57114  43.0048 339.9903 0001296 266.0901  93.9794 15.02539607 98777
STARLINK-6085           
1 57115U 23090Q   25090.39379174 -.00001363  00000+0 -85781-4 0  9999
2 57115  43.0042 339.9486 0001295 268.1863  91.8831 15.02554332 98778
STARLINK-6129           
1 57116U 23090R   25090.40602308 -.00000553  00000+0 -25885-4 0  9999
2 57116  43.0052 340.0423 0001123 279.1884  80.8831 15.02526123 98774
STARLINK-6148           
1 57117U 23090S   25090.39047073  .00000375  00000+0  42828-4 0  9996
2 57117  43.0097 339.9167 0001152 273.5210  86.5501 15.02538943 98779
STARLINK-6151           
1 57118U 23090T   25090.38502939  .00029496  00000+0  19463-2 0  9995
2 57118  43.0022 339.0380 0006415 241.8219 118.1977 15.06920613 98783
STARLINK-6150           
1 57119U 23090U   25090.38601273  .00002207  00000+0  17832-3 0  9997
2 57119  43.0034 339.8820 0001470 271.5986  88.4688 15.02550922 98776
STARLINK-6147           
1 57120U 23090V   25090.39268825  .00001229  00000+0  10606-3 0  9997
2 57120  43.0035 339.9369 0001198 275.5307  84.5398 15.02539988 98770
STARLINK-6152           
1 57121U 23090W   25090.37715270  .00002797  00000+0  22199-3 0  9998
2 57121  43.0053 339.8202 0001473 271.1117  88.9557 15.02551664 98582
STARLINK-6149           
1 57122U 23090X   25090.05031035  .00001232  00000+0  10626-3 0  9999
2 57122  43.0051 341.6668 0001211 272.0974  87.9729 15.02539171 98724
STARLINK-6154           
1 57123U 23090Y   25090.37381933  .00001198  00000+0  10373-3 0  9990
2 57123  43.0070 339.7950 0001204 264.4372  95.6333 15.02543865 98583
STARLINK-6146           
1 57124U 23090Z   25090.38048327  .00000114  00000+0  23520-4 0  9995
2 57124  43.0041 339.8430 0001395 275.6650  84.4033 15.02534993 98776
STARLINK-6100           
1 57125U 23090AA  25090.35976899  .00000527  00000+0  54116-4 0  9990
2 57125  43.0047 327.5334 0001508 274.4860  85.5810 15.02535915 98721
STARLINK-6167           
1 57126U 23090AB  25090.37936862 -.00001388  00000+0 -87724-4 0  9998
2 57126  43.0002 339.8389 0001236 276.9126  83.1575 15.02533250 98776
STARLINK-6165           
1 57127U 23090AC  25090.36938014  .00000802  00000+0  74411-4 0  9996
2 57127  43.0011 339.7613 0001311 255.6541 104.4156 15.02541721 98588
STARLINK-6163           
1 57128U 23090AD  25090.37605302  .00006541  00000+0  49869-3 0  9993
2 57128  43.0058 339.8073 0001175 252.6922 107.3792 15.02545409 98584
STARLINK-6170           
1 57129U 23090AE  25090.37419714  .00000784  00000+0  73138-4 0  9994
2 57129  43.0054 327.6438 0001342 269.7802  90.2887 15.02537505 98722
STARLINK-6172           
1 57130U 23090AF  25090.10457773  .00002084  00000+0  16930-3 0  9995
2 57130  43.0026 341.2131 0001280 272.5217  87.5479 15.02543299 98541
STARLINK-6162           
1 57131U 23090AG  25090.36974932 -.00002497  00000+0 -16984-3 0  9994
2 57131  43.0055 327.6104 0001207 278.0133  82.0573 15.02541896 98725
STARLINK-6128           
1 57132U 23090AH  25089.96497361  .00003438  00000+0  26955-3 0  9998
2 57132  43.0031 341.8879 0001129 282.1183  77.9533 15.02522126 98523
STARLINK-6143           
1 57133U 23090AJ  25090.35643595  .00000408  00000+0  45260-4 0  9991
2 57133  43.0055 327.5072 0001282 267.6063  92.4633 15.02539274 98728
STARLINK-6133           
1 57134U 23090AK  25090.03847938  .00000648  00000+0  62993-4 0  9992
2 57134  43.0046 329.4190 0001265 274.8214  85.2484 15.02549240 98672
STARLINK-6127           
1 57135U 23090AL  25090.34644409  .00000444  00000+0  47965-4 0  9991
2 57135  43.0052 327.4281 0001354 275.9164  84.1524 15.02538969 98729
STARLINK-6112           
1 57136U 23090AM  25090.36753479  .00001389  00000+0  11785-3 0  9991
2 57136  43.0044 327.5909 0001141 281.1612  78.9102 15.02538992 98741
STARLINK-5347           
1 57137U 23090AN  25090.35421574  .00002561  00000+0  20454-3 0  9995
2 57137  43.0030 327.4896 0001275 266.3160  93.7537 15.02546442 98726
STARLINK-5336           
1 57138U 23090AP  25090.36642265  .00001216  00000+0  10504-3 0  9990
2 57138  43.0040 327.5821 0001239 273.7643  86.3057 15.02538450 98720
STARLINK-5355           
1 57139U 23090AQ  25090.34977559  .00000980  00000+0  87584-4 0  9996
2 57139  43.0057 327.4581 0001107 262.0474  98.0242 15.02540150 98724
STARLINK-5357           
1 57141U 23090AS  25089.94536101  .00000623  00000+0  61225-4 0  9995
2 57141  43.0062 329.5777 0001028 257.1324 102.9404 15.02533972 98666
STARLINK-5361           
1 57142U 23090AT  25090.07387278  .00000286  00000+0  36280-4 0  9999
2 57142  43.0046 328.8244 0001409 275.8005  84.2677 15.02541049 98686
STARLINK-5358           
1 57143U 23090AU  25090.33645505  .00000488  00000+0  51195-4 0  9995
2 57143  43.0052 327.3557 0001335 258.4082 101.6611 15.02543672 98726
STARLINK-5150           
1 57144U 23090AV  25090.34756228  .00002915  00000+0  23078-3 0  9997
2 57144  43.0055 327.4344 0001326 267.5372  92.5318 15.02535655 98722
STARLINK-5768           
1 57145U 23090AW  25090.79292183 -.00001046  00000+0 -62330-4 0  9993
2 57145  43.0038 324.7595 0001270 265.7421  94.3276 15.02540525 97842
STARLINK-5791           
1 57146U 23090AX  25090.00184994  .00001460  00000+0  12312-3 0  9990
2 57146  43.0052 329.1422 0001255 266.8792  93.1907 15.02539622 98679
STARLINK-5765           
1 57147U 23090AY  25090.05723104  .00001623  00000+0  13514-3 0  9994
2 57147  43.0039 328.6964 0001067 259.4824 100.5898 15.02542416 98874
STARLINK-5788           
1 57148U 23090AZ  25090.05056716  .00001002  00000+0  89255-4 0  9990
2 57148  43.0057 328.6473 0001225 264.4489  95.6214 15.02539767 98689
STARLINK-5778           
1 57149U 23090BA  25090.86877202  .00000503  00000+0  52251-4 0  9992
2 57149  43.0035 298.4220 0000950 268.0212  92.0521 15.02547437 98166
STARLINK-5780           
1 57150U 23090BB  25090.06500483 -.00002952  00000+0 -20361-3 0  9998
2 57150  43.0056 328.7551 0001208 269.2925  90.7779 15.02523120 98877
STARLINK-5776           
1 57151U 23090BC  25089.93093386  .00000938  00000+0  84545-4 0  9997
2 57151  43.0038 329.4707 0001594 265.3785  94.6876 15.02535243 98856
STARLINK-6164           
1 57152U 23090BD  25090.06721372  .00000613  00000+0  60439-4 0  9993
2 57152  43.0057 328.7749 0001173 274.4750  85.5959 15.02537365 98872
STARLINK-5879           
1 57153U 23090BE  25089.95782204 -.00010375  00000+0 -75308-3 0  9999
2 57153  43.0057 316.6501 0001431 262.5786  97.4893 15.02584634 98509
STARLINK-6106           
1 57154U 23090BF  25090.05833537  .00000651  00000+0  63234-4 0  9999
2 57154  43.0036 328.7062 0001573 274.4971  85.5692 15.02536527 98871
STARLINK-6108           
1 57155U 23090BG  25090.37629164 -.00000091  00000+0  83719-5 0  9994
2 57155  43.0054 326.7936 0001342 272.4023  87.6665 15.02548356 98922
STARLINK-6137           
1 57156U 23090BH  25090.37962674 -.00000039  00000+0  12203-4 0  9992
2 57156  43.0057 326.8180 0001594 273.2371  86.8289 15.02545495 98926
STARLINK-5525           
1 57218U 23094A   25090.45341183  .00000949  00000+0  85273-4 0  9996
2 57218  43.0026  95.7828 0001090 276.8449  83.2269 15.02540246 95484
STARLINK-5520           
1 57219U 23094B   25090.71599417  .00001870  00000+0  15341-3 0  9993
2 57219  43.0025  94.3134 0001282 266.3441  93.7255 15.02544428 95700
STARLINK-5880           
1 57220U 23094C   25090.50102073  .00000524  00000+0  53846-4 0  9998
2 57220  43.0024  95.2777 0001116 261.6221  98.4495 15.02541259 95497
STARLINK-5875           
1 57221U 23094D   25090.04899585  .00002066  00000+0  16795-3 0  9993
2 57221  43.0021  97.9084 0001207 269.6571  90.4133 15.02539962 95424
STARLINK-5870           
1 57222U 23094E   25090.37472628  .00001360  00000+0  11571-3 0  9998
2 57222  43.0033  96.0509 0001249 271.4503  88.6196 15.02537421 96104
STARLINK-5519           
1 57223U 23094F   25090.51101773 -.00000834  00000+0 -46705-4 0  9990
2 57223  43.0023  95.3545 0000963 267.5706  92.5026 15.02530909 95490
STARLINK-5983           
1 57224U 23094G   25090.70378347  .00001343  00000+0  11449-3 0  9995
2 57224  43.0023  94.2214 0001228 268.7850  91.2852 15.02539629 95705
STARLINK-6294           
1 57225U 23094H   25090.44675648  .00000408  00000+0  45301-4 0  9997
2 57225  43.0024  95.7283 0001012 275.1908  84.8819 15.02534707 95484
STARLINK-6350           
1 57226U 23094J   25090.49325235  .00003047  00000+0  24058-3 0  9994
2 57226  43.0035  95.2172 0001387 268.2251  91.8432 15.02534052 95491
STARLINK-5996           
1 57227U 23094K   25090.69712351  .00000807  00000+0  74802-4 0  9990
2 57227  43.0037  94.1682 0001216 263.2797  96.7907 15.02538782 95708
STARLINK-6230           
1 57228U 23094L   25090.35696308  .00000198  00000+0  29695-4 0  9990
2 57228  43.0036  95.9152 0001297 270.5472  89.5222 15.02534454 95475
STARLINK-6233           
1 57229U 23094M   25090.69601494  .00001849  00000+0  15190-3 0  9998
2 57229  43.0038  94.1590 0001424 268.9895  91.0784 15.02538786 95706
STARLINK-6250           
1 57230U 23094N   25090.48439170  .00007104  00000+0  54072-3 0  9999
2 57230  43.0026  95.1514 0001286 264.7764  95.2931 15.02516607 95491
STARLINK-5840           
1 57231U 23094P   25090.72699409  .00003823  00000+0  29796-3 0  9999
2 57231  43.0057  93.5316 0002504 278.1701  81.8857 15.02536036 95713
STARLINK-5872           
1 57232U 23094Q   25090.45995383 -.00000009  00000+0  14413-4 0  9995
2 57232  43.0030  94.9631 0001118 269.0475  91.0239 15.02535989 96159
STARLINK-5866           
1 57233U 23094R   25090.46772561  .00000951  00000+0  85481-4 0  9996
2 57233  43.0036  95.0267 0001216 266.2689  93.8015 15.02537273 95494
